OBJECT_NAME,OBJECT_ID,EPOCH,MEAN_MOTION,ECCENTRICITY,INCLINATION,RA_OF_ASC_NODE,ARG_OF_PERICENTER,MEAN_ANOMALY,EPHEMERIS_TYPE,CLASSIFICATION_TYPE,NORAD_CAT_ID,ELEMENT_SET_NO,REV_AT_EPOCH,BSTAR,MEAN_MOTION_DOT,MEAN_MOTION_DDOT
SL-14 R/B,1985-069B,2026-06-14T01:44:48.749280,14.86513392,.0017578,82.5267,294.2950,230.0934,129.8738,0,U,15945,999,18715,.42506E-4,.401E-5,0
SL-16 R/B,1985-097B,2026-06-14T02:41:06.096768,14.16610789,.0005439,71.0035,297.5526,117.7740,54.6549,0,U,16182,999,10088,-.98408E-4,-.244E-5,0
SL-14 R/B,1986-006B,2026-06-14T02:10:31.353888,14.86942918,.0075147,82.5262,169.0274,313.9265,45.5764,0,U,16496,999,16353,.55718E-4,.55E-5,0
COSMOS 1743,1986-034A,2026-06-14T05:00:51.070752,15.66702462,.0003796,82.5269,331.8983,284.9644,75.1195,0,U,16719,999,19532,.4811E-3,.50729E-3,0
SL-14 R/B,1986-055B,2026-06-14T03:03:07.062048,14.85721294,.0019344,82.5205,36.0100,17.6404,111.4583,0,U,16882,999,13368,.4036E-4,.376E-5,0
SL-14 R/B,1987-038B,2026-06-14T03:57:35.536896,14.85443556,.0018618,82.5010,205.9190,201.3932,158.6508,0,U,17912,999,9355,.32632E-4,.306E-5,0
COSMOS 1867,1987-060A,2026-06-13T23:44:51.472032,14.31515491,.0016446,65.0116,37.0142,282.1088,77.8154,0,U,18187,999,3372,.27271E-4,-.28E-6,0
COSMOS 1933,1988-020A,2026-06-14T01:44:30.407424,15.18694692,.0003125,82.5115,155.5192,197.3434,162.7694,0,U,18958,999,6485,.15841E-3,.3315E-4,0
SL-3 R/B,1988-032B,2026-06-14T05:11:47.892192,15.20820950,.0023711,97.5248,148.2603,256.1471,103.7126,0,U,19046,999,6677,.18599E-3,.406E-4,0
COSMOS 1953,1988-050A,2026-06-14T04:57:13.074048,15.29940355,.001194,82.5086,61.0402,135.3677,224.8527,0,U,19210,999,5253,.25487E-3,.7434E-4,0
SL-8 R/B,1988-053B,2026-06-14T02:34:20.409024,14.38966388,.0019168,74.0479,294.7348,91.2006,81.4497,0,U,19257,999,99046,.5774E-4,.152E-5,0
COSMOS 1975,1988-093A,2026-06-14T01:53:51.811296,15.29290980,.0011003,82.5194,20.8290,182.2738,177.8454,0,U,19573,999,3413,.26341E-3,.7528E-4,0
SL-14 R/B,1988-093B,2026-06-13T21:59:51.633312,14.85739646,.0022163,82.5309,311.7155,80.5250,40.8820,0,U,19574,999,1530,.45117E-4,.418E-5,0
SL-16 R/B,1988-102B,2026-06-14T02:37:18.189120,14.16165138,.0015936,71.0001,308.6158,229.7300,130.2431,0,U,19650,999,94054,-.99603E-4,-.245E-5,0
INTERCOSMOS 24,1989-080A,2026-06-14T03:46:31.114848,12.59657396,.1188389,82.6067,41.6164,68.9290,303.4600,0,U,20261,999,67894,.24261E-3,.855E-5,0
SL-14 R/B,1989-080C,2026-06-14T02:56:18.333024,12.50569139,.1228911,82.5930,111.2766,324.4156,28.0660,0,U,20262,999,67220,.9075E-4,.304E-5,0
ARIANE 40 R/B,1990-005H,2026-06-14T03:01:42.180096,14.39925875,.0008804,98.2960,222.8373,274.9768,85.0415,0,U,20443,999,90668,.82318E-4,.217E-5,0
DELTA 2 R/B(1),1990-008B,2026-06-13T22:40:16.120128,15.68352967,.0065605,35.6001,257.3443,83.4720,277.3483,0,U,20453,999,94119,.60673E-3,.80584E-3,0
COSMOS 2058,1990-010A,2026-06-14T03:46:40.381248,15.11993865,.0009576,82.4668,312.3425,11.7102,348.4349,0,U,20465,999,95681,.22311E-3,.3861E-4,0
SL-14 R/B,1990-010B,2026-06-14T03:11:25.092384,14.83644502,.0019353,82.5017,176.8133,346.6482,13.4218,0,U,20466,999,94278,.38548E-4,.343E-5,0
